{
  "norad_id": 64724,
  "name": "STARLINK-34393",
  "history": [
    {
      "epoch": "2026-05-03T17:41:32.189568Z",
      "apogee_km": 476.0920207927684,
      "perigee_km": 474.321116814589,
      "latitude_deg": 3.269795281050673e-05,
      "longitude_deg": 158.06102841633526,
      "height_km": 475.63038511733305,
      "semi_major_axis_km": 6853.343568803679,
      "eccentricity": 0.0001292,
      "inclination_deg": 53.1584,
      "raan_deg": 285.0817,
      "arg_perigee_deg": 57.6087,
      "mean_anomaly_deg": 302.5039,
      "mean_motion_rev_day": 15.30202847
    },
    {
      "epoch": "2026-05-04T20:20:27.381696Z",
      "apogee_km": 476.04150235394627,
      "perigee_km": 474.6406514350292,
      "latitude_deg": 8.104428118359815e-05,
      "longitude_deg": 112.08497165600349,
      "height_km": 476.1582432364735,
      "semi_major_axis_km": 6853.4780768944875,
      "eccentricity": 0.0001022,
      "inclination_deg": 53.1591,
      "raan_deg": 279.93,
      "arg_perigee_deg": 83.3485,
      "mean_anomaly_deg": 276.7633,
      "mean_motion_rev_day": 15.30157799
    },
    {
      "epoch": "2026-05-05T16:43:09.742656Z",
      "apogee_km": 475.97258881194193,
      "perigee_km": 474.4552569176185,
      "latitude_deg": 1.1366121504590412e-05,
      "longitude_deg": 161.62679998069382,
      "height_km": 475.95753373782753,
      "semi_major_axis_km": 6853.35092286478,
      "eccentricity": 0.0001107,
      "inclination_deg": 53.1591,
      "raan_deg": 275.9853,
      "arg_perigee_deg": 78.2403,
      "mean_anomaly_deg": 281.8722,
      "mean_motion_rev_day": 15.30200384
    },
    {
      "epoch": "2026-05-05T16:43:09.743520Z",
      "apogee_km": 475.97272587895895,
      "perigee_km": 474.45511985060057,
      "latitude_deg": 9.55991920058663e-06,
      "longitude_deg": 161.6267950250966,
      "height_km": 475.9575058029773,
      "semi_major_axis_km": 6853.35092286478,
      "eccentricity": 0.00011072,
      "inclination_deg": 53.1591,
      "raan_deg": 275.9853,
      "arg_perigee_deg": 78.2403,
      "mean_anomaly_deg": 281.8722,
      "mean_motion_rev_day": 15.30200384
    },
    {
      "epoch": "2026-05-07T18:52:49.864800Z",
      "apogee_km": 475.95216995402734,
      "perigee_km": 474.2991629988737,
      "latitude_deg": -1.4418574032081822e-05,
      "longitude_deg": 117.44125243993426,
      "height_km": 476.1114922060328,
      "semi_major_axis_km": 6853.26266647645,
      "eccentricity": 0.0001206,
      "inclination_deg": 53.1603,
      "raan_deg": 266.277,
      "arg_perigee_deg": 96.0848,
      "mean_anomaly_deg": 264.029,
      "mean_motion_rev_day": 15.30229943
    },
    {
      "epoch": "2026-05-08T15:15:31.584672Z",
      "apogee_km": 476.1854382194915,
      "perigee_km": 474.21441851889267,
      "latitude_deg": -2.821370564317272e-05,
      "longitude_deg": 166.98690161675796,
      "height_km": 475.94033049272304,
      "semi_major_axis_km": 6853.336928369192,
      "eccentricity": 0.0001438,
      "inclination_deg": 53.1604,
      "raan_deg": 262.3334,
      "arg_perigee_deg": 80.8027,
      "mean_anomaly_deg": 279.3136,
      "mean_motion_rev_day": 15.30205071
    },
    {
      "epoch": "2026-05-09T14:46:19.931808Z",
      "apogee_km": 476.0881864076664,
      "perigee_km": 474.3995133662547,
      "latitude_deg": -1.6918673744863285e-05,
      "longitude_deg": 168.76949914708678,
      "height_km": 476.2268804201484,
      "semi_major_axis_km": 6853.38084988696,
      "eccentricity": 0.0001232,
      "inclination_deg": 53.1607,
      "raan_deg": 257.7831,
      "arg_perigee_deg": 95.7657,
      "mean_anomaly_deg": 264.3484,
      "mean_motion_rev_day": 15.30190361
    },
    {
      "epoch": "2026-05-10T15:51:11.062080Z",
      "apogee_km": 476.01849439394937,
      "perigee_km": 474.398363534543,
      "latitude_deg": -7.370114122775908e-06,
      "longitude_deg": 146.6711273254694,
      "height_km": 476.13867853111776,
      "semi_major_axis_km": 6853.345428964246,
      "eccentricity": 0.0001182,
      "inclination_deg": 53.1615,
      "raan_deg": 252.9278,
      "arg_perigee_deg": 92.2562,
      "mean_anomaly_deg": 267.8574,
      "mean_motion_rev_day": 15.30202224
    },
    {
      "epoch": "2026-05-11T01:15:30.238848Z",
      "apogee_km": 476.0859913843624,
      "perigee_km": 474.30933290654775,
      "latitude_deg": -6.806182243416777e-06,
      "longitude_deg": 3.3862611462183345,
      "height_km": 476.05344723961014,
      "semi_major_axis_km": 6853.334662145455,
      "eccentricity": 0.00012962,
      "inclination_deg": 53.1606,
      "raan_deg": 251.1091,
      "arg_perigee_deg": 87.2691,
      "mean_anomaly_deg": 272.8458,
      "mean_motion_rev_day": 15.3020583
    },
    {
      "epoch": "2026-05-12T16:26:49.841376Z",
      "apogee_km": 475.99060797694983,
      "perigee_km": 474.58702636959333,
      "latitude_deg": -1.9785359241435913e-05,
      "longitude_deg": 126.36014857506603,
      "height_km": 476.36575293266213,
      "semi_major_axis_km": 6853.425817173271,
      "eccentricity": 0.0001024,
      "inclination_deg": 53.1604,
      "raan_deg": 243.5241,
      "arg_perigee_deg": 104.7308,
      "mean_anomaly_deg": 255.3806,
      "mean_motion_rev_day": 15.30175301
    },
    {
      "epoch": "2026-05-13T12:49:31.861056Z",
      "apogee_km": 476.0115301591195,
      "perigee_km": 474.46266761277,
      "latitude_deg": -2.083820567029757e-05,
      "longitude_deg": 175.90435766591997,
      "height_km": 476.26997371951103,
      "semi_major_axis_km": 6853.3740988859445,
      "eccentricity": 0.000113,
      "inclination_deg": 53.1593,
      "raan_deg": 239.5803,
      "arg_perigee_deg": 100.0139,
      "mean_anomaly_deg": 260.0989,
      "mean_motion_rev_day": 15.30192622
    },
    {
      "epoch": "2026-05-13T23:47:54.002400Z",
      "apogee_km": 475.92137412484226,
      "perigee_km": 474.4543514047191,
      "latitude_deg": -3.561057807473351e-05,
      "longitude_deg": 8.737953776589334,
      "height_km": 476.21657801081795,
      "semi_major_axis_km": 6853.324862764781,
      "eccentricity": 0.00010703,
      "inclination_deg": 53.1593,
      "raan_deg": 237.4568,
      "arg_perigee_deg": 100.2414,
      "mean_anomaly_deg": 259.8707,
      "mean_motion_rev_day": 15.30209112
    }
  ]
}